{
  "type": "FeatureCollection",
  "features": [
    {
      "type": "Feature",
      "properties": {
        "norad_id": 66510,
        "name": "STARLINK-35600",
        "group": "last-30-days",
        "lat": 37.906836569446824,
        "lon": -111.40413866671284,
        "alt_km": 409.95923118545124,
        "timestamp": "2025-12-12T16:50:31.910354+00:00",
        "meta_object_name": "STARLINK-35600",
        "meta_object_id": "2025-263AB",
        "meta_epoch": "2025-12-12T00:00:04.999968",
        "meta_mean_motion": 15.50514319,
        "meta_eccentricity": 0.00016313,
        "meta_inclination": 43.0002,
        "meta_ra_of_asc_node": 129.3809,
        "meta_arg_of_pericenter": 275.1009,
        "meta_mean_anomaly": 238.9544,
        "meta_ephemeris_type": 0,
        "meta_classification_type": "U",
        "meta_norad_cat_id": 66510,
        "meta_element_set_no": 999,
        "meta_rev_at_epoch": 551,
        "meta_bstar": 0.0011373706,
        "meta_mean_motion_dot": 0.000668,
        "meta_mean_motion_ddot": 0,
        "tle_line1": "1 66510U 25263AB  25346.00005787  .00066800  00000+0  11374-2 0  9990",
        "tle_line2": "2 66510  43.0002 129.3809 0001631 275.1009 238.9544 15.50514319  5516"
      },
      "geometry": {
        "type": "Point",
        "coordinates": [
          -111.40413866671284,
          37.906836569446824
        ]
      }
    },
    {
      "type": "Feature",
      "properties": {
        "norad_id": 66511,
        "name": "STARLINK-35444",
        "group": "last-30-days",
        "lat": 36.387812733607085,
        "lon": -106.9962286414669,
        "alt_km": 410.02196942380033,
        "timestamp": "2025-12-12T16:50:31.910365+00:00",
        "meta_object_name": "STARLINK-35444",
        "meta_object_id": "2025-263AC",
        "meta_epoch": "2025-12-12T00:00:04.999968",
        "meta_mean_motion": 15.50508056,
        "meta_eccentricity": 0.00013512,
        "meta_inclination": 43.0002,
        "meta_ra_of_asc_node": 129.3718,
        "meta_arg_of_pericenter": 275.8701,
        "meta_mean_anomaly": 242.0304,
        "meta_ephemeris_type": 0,
        "meta_classification_type": "U",
        "meta_norad_cat_id": 66511,
        "meta_element_set_no": 999,
        "meta_rev_at_epoch": 551,
        "meta_bstar": 0.0011336522,
        "meta_mean_motion_dot": 0.00066563,
        "meta_mean_motion_ddot": 0,
        "tle_line1": "1 66511U 25263AC  25346.00005787  .00066563  00000+0  11337-2 0  9996",
        "tle_line2": "2 66511  43.0002 129.3718 0001351 275.8701 242.0304 15.50508056  5512"
      },
      "geometry": {
        "type": "Point",
        "coordinates": [
          -106.9962286414669,
          36.387812733607085
        ]
      }
    },
    {
      "type": "Feature",
      "properties": {
        "norad_id": 66512,
        "name": "STARLINK-35366",
        "group": "last-30-days",
        "lat": 34.705088688224976,
        "lon": -102.74860452099855,
        "alt_km": 410.38259311562524,
        "timestamp": "2025-12-12T16:50:31.910376+00:00",
        "meta_object_name": "STARLINK-35366",
        "meta_object_id": "2025-263AD",
        "meta_epoch": "2025-12-12T00:00:04.999968",
        "meta_mean_motion": 15.50513108,
        "meta_eccentricity": 0.00015019,
        "meta_inclination": 43.0002,
        "meta_ra_of_asc_node": 129.3623,
        "meta_arg_of_pericenter": 287.3568,
        "meta_mean_anomaly": 234.365,
        "meta_ephemeris_type": 0,
        "meta_classification_type": "U",
        "meta_norad_cat_id": 66512,
        "meta_element_set_no": 999,
        "meta_rev_at_epoch": 551,
        "meta_bstar": 0.0012291194,
        "meta_mean_motion_dot": 0.00072263,
        "meta_mean_motion_ddot": 0,
        "tle_line1": "1 66512U 25263AD  25346.00005787  .00072263  00000+0  12291-2 0  9991",
        "tle_line2": "2 66512  43.0002 129.3623 0001501 287.3568 234.3650 15.50513108  5516"
      },
      "geometry": {
        "type": "Point",
        "coordinates": [
          -102.74860452099855,
          34.705088688224976
        ]
      }
    },
    {
      "type": "Feature",
      "properties": {
        "norad_id": 66513,
        "name": "STARLINK-35692",
        "group": "last-30-days",
        "lat": 37.15807060101416,
        "lon": -109.1494955191327,
        "alt_km": 410.1830679567702,
        "timestamp": "2025-12-12T16:50:31.910386+00:00",
        "meta_object_name": "STARLINK-35692",
        "meta_object_id": "2025-263AE",
        "meta_epoch": "2025-12-12T00:00:04.999968",
        "meta_mean_motion": 15.5050845,
        "meta_eccentricity": 0.00018296,
        "meta_inclination": 43.0002,
        "meta_ra_of_asc_node": 129.3766,
        "meta_arg_of_pericenter": 288.1081,
        "meta_mean_anomaly": 227.8636,
        "meta_ephemeris_type": 0,
        "meta_classification_type": "U",
        "meta_norad_cat_id": 66513,
        "meta_element_set_no": 999,
        "meta_rev_at_epoch": 551,
        "meta_bstar": 0.001465874,
        "meta_mean_motion_dot": 0.00086392,
        "meta_mean_motion_ddot": 0,
        "tle_line1": "1 66513U 25263AE  25346.00005787  .00086392  00000+0  14659-2 0  9990",
        "tle_line2": "2 66513  43.0002 129.3766 0001829 288.1081 227.8636 15.50508450  5512"
      },
      "geometry": {
        "type": "Point",
        "coordinates": [
          -109.1494955191327,
          37.15807060101416
        ]
      }
    },
    {
      "type": "Feature",
      "properties": {
        "norad_id": 66514,
        "name": "SENTINEL-6B",
        "group": "last-30-days",
        "lat": -64.29418530357493,
        "lon": 95.04025464685536,
        "alt_km": 1335.8957972871003,
        "timestamp": "2025-12-12T16:50:31.910399+00:00",
        "meta_object_name": "SENTINEL-6B",
        "meta_object_id": "2025-264A",
        "meta_epoch": "2025-12-12T06:01:21.430272",
        "meta_mean_motion": 12.81479583,
        "meta_eccentricity": 0.00078489,
        "meta_inclination": 66.0385,
        "meta_ra_of_asc_node": 163.4531,
        "meta_arg_of_pericenter": 270.1768,
        "meta_mean_anomaly": 89.8348,
        "meta_ephemeris_type": 0,
        "meta_classification_type": "U",
        "meta_norad_cat_id": 66514,
        "meta_element_set_no": 999,
        "meta_rev_at_epoch": 322,
        "meta_bstar": 0.00019742237,
        "meta_mean_motion_dot": -1.5e-07,
        "meta_mean_motion_ddot": 0,
        "tle_line1": "1 66514U 25264A   25346.25094248 -.00000015  00000+0  19742-3 0  9997",
        "tle_line2": "2 66514  66.0385 163.4531 0007848 270.1768  89.8348 12.81479583  3228"
      },
      "geometry": {
        "type": "Point",
        "coordinates": [
          95.04025464685536,
          -64.29418530357493
        ]
      }
    },
    {
      "type": "Feature",
      "properties": {
        "norad_id": 66516,
        "name": "STARLINK-35924",
        "group": "last-30-days",
        "lat": -38.87877243143563,
        "lon": -65.75515930313567,
        "alt_km": 445.8125822567672,
        "timestamp": "2025-12-12T16:50:31.910409+00:00",
        "meta_object_name": "STARLINK-35924",
        "meta_object_id": "2025-265A",
        "meta_epoch": "2025-12-12T06:00:00.999648",
        "meta_mean_motion": 15.43116483,
        "meta_eccentricity": 0.00012528,
        "meta_inclination": 43.0004,
        "meta_ra_of_asc_node": 56.9436,
        "meta_arg_of_pericenter": 251.5557,
        "meta_mean_anomaly": 4.7897,
        "meta_ephemeris_type": 0,
        "meta_classification_type": "U",
        "meta_norad_cat_id": 66516,
        "meta_element_set_no": 999,
        "meta_rev_at_epoch": 489,
        "meta_bstar": -0.058248166,
        "meta_mean_motion_dot": -0.02351276,
        "meta_mean_motion_ddot": 0,
        "tle_line1": "1 66516U 25265A   25346.25001157 -.02351276  00000+0 -58248-1 0  9990",
        "tle_line2": "2 66516  43.0004  56.9436 0001252 251.5557   4.7897 15.43116483  4892"
      },
      "geometry": {
        "type": "Point",
        "coordinates": [
          -65.75515930313567,
          -38.87877243143563
        ]
      }
    },
    {
      "type": "Feature",
      "properties": {
        "norad_id": 66517,
        "name": "STARLINK-35937",
        "group": "last-30-days",
        "lat": -40.84872309071711,
        "lon": -13.869708328475877,
        "alt_km": 417.40823613961857,
        "timestamp": "2025-12-12T16:50:31.910420+00:00",
        "meta_object_name": "STARLINK-35937",
        "meta_object_id": "2025-265B",
        "meta_epoch": "2025-12-12T06:00:00.999648",
        "meta_mean_motion": 15.50549289,
        "meta_eccentricity": 0.00014002,
        "meta_inclination": 43.0003,
        "meta_ra_of_asc_node": 56.8815,
        "meta_arg_of_pericenter": 268.9208,
        "meta_mean_anomaly": 12.8005,
        "meta_ephemeris_type": 0,
        "meta_classification_type": "U",
        "meta_norad_cat_id": 66517,
        "meta_element_set_no": 999,
        "meta_rev_at_epoch": 491,
        "meta_bstar": 0.00048702885,
        "meta_mean_motion_dot": 0.00028303,
        "meta_mean_motion_ddot": 0,
        "tle_line1": "1 66517U 25265B   25346.25001157  .00028303  00000+0  48703-3 0  9996",
        "tle_line2": "2 66517  43.0003  56.8815 0001400 268.9208  12.8005 15.50549289  4918"
      },
      "geometry": {
        "type": "Point",
        "coordinates": [
          -13.869708328475877,
          -40.84872309071711
        ]
      }
    }
  ]
}